{
  "type": "FeatureCollection",
  "features": [
    {
      "type": "Feature",
      "properties": {
        "norad_id": 37562,
        "name": "IRIDIUM 33 DEB",
        "group": "iridium-33-debris",
        "lat": -28.142689101184722,
        "lon": -133.44172421640155,
        "alt_km": 711.7611874540853,
        "timestamp": "2025-12-10T09:57:45.083807+00:00",
        "meta_object_name": "IRIDIUM 33 DEB",
        "meta_object_id": "1997-051XX",
        "meta_epoch": "2025-12-07T12:03:22.182048",
        "meta_mean_motion": 14.56401675,
        "meta_eccentricity": 0.00267128,
        "meta_inclination": 86.3743,
        "meta_ra_of_asc_node": 45.8843,
        "meta_arg_of_pericenter": 124.2165,
        "meta_mean_anomaly": 301.4124,
        "meta_ephemeris_type": 0,
        "meta_classification_type": "U",
        "meta_norad_cat_id": 37562,
        "meta_element_set_no": 999,
        "meta_rev_at_epoch": 86252,
        "meta_bstar": 0.0018073618,
        "meta_mean_motion_dot": 8.081e-05,
        "meta_mean_motion_ddot": 0,
        "tle_line1": "1 37562U 97051XX  25341.50234007  .00008081  00000+0  18074-2 0  9999",
        "tle_line2": "2 37562  86.3743  45.8843 0026712 124.2165 301.4124 14.56401675862524"
      },
      "geometry": {
        "type": "Point",
        "coordinates": [
          -133.44172421640155,
          -28.142689101184722
        ]
      }
    },
    {
      "type": "Feature",
      "properties": {
        "norad_id": 37565,
        "name": "IRIDIUM 33 DEB",
        "group": "iridium-33-debris",
        "lat": 29.4834906246865,
        "lon": 12.659387653691983,
        "alt_km": 714.0873123723668,
        "timestamp": "2025-12-10T09:57:45.083817+00:00",
        "meta_object_name": "IRIDIUM 33 DEB",
        "meta_object_id": "1997-051YA",
        "meta_epoch": "2025-12-09T09:00:32.620320",
        "meta_mean_motion": 14.51496664,
        "meta_eccentricity": 0.00152947,
        "meta_inclination": 86.3494,
        "meta_ra_of_asc_node": 11.0435,
        "meta_arg_of_pericenter": 94.02,
        "meta_mean_anomaly": 266.2754,
        "meta_ephemeris_type": 0,
        "meta_classification_type": "U",
        "meta_norad_cat_id": 37565,
        "meta_element_set_no": 999,
        "meta_rev_at_epoch": 65788,
        "meta_bstar": 0.00087733557,
        "meta_mean_motion_dot": 3.53e-05,
        "meta_mean_motion_ddot": 0,
        "tle_line1": "1 37565U 97051YA  25343.37537755  .00003530  00000+0  87734-3 0  9999",
        "tle_line2": "2 37565  86.3494  11.0435 0015294  94.0200 266.2754 14.51496664657884"
      },
      "geometry": {
        "type": "Point",
        "coordinates": [
          12.659387653691983,
          29.4834906246865
        ]
      }
    },
    {
      "type": "Feature",
      "properties": {
        "norad_id": 38017,
        "name": "IRIDIUM 33 DEB",
        "group": "iridium-33-debris",
        "lat": 39.66477249422905,
        "lon": -15.805336127307124,
        "alt_km": 669.1553681470887,
        "timestamp": "2025-12-10T09:57:45.083828+00:00",
        "meta_object_name": "IRIDIUM 33 DEB",
        "meta_object_id": "1997-051YD",
        "meta_epoch": "2025-12-09T11:46:33.974400",
        "meta_mean_motion": 14.48798155,
        "meta_eccentricity": 0.00922627,
        "meta_inclination": 86.3416,
        "meta_ra_of_asc_node": 167.6374,
        "meta_arg_of_pericenter": 113.885,
        "meta_mean_anomaly": 247.2055,
        "meta_ephemeris_type": 0,
        "meta_classification_type": "U",
        "meta_norad_cat_id": 38017,
        "meta_element_set_no": 999,
        "meta_rev_at_epoch": 61355,
        "meta_bstar": 0.007075922,
        "meta_mean_motion_dot": 0.00028304,
        "meta_mean_motion_ddot": 0,
        "tle_line1": "1 38017U 97051YD  25343.49067100  .00028304  00000+0  70759-2 0  9991",
        "tle_line2": "2 38017  86.3416 167.6374 0092262 113.8850 247.2055 14.48798155613557"
      },
      "geometry": {
        "type": "Point",
        "coordinates": [
          -15.805336127307124,
          39.66477249422905
        ]
      }
    },
    {
      "type": "Feature",
      "properties": {
        "norad_id": 38022,
        "name": "IRIDIUM 33 DEB",
        "group": "iridium-33-debris",
        "lat": -14.79865743575063,
        "lon": 16.473709909144453,
        "alt_km": 748.8426040987961,
        "timestamp": "2025-12-10T09:57:45.083844+00:00",
        "meta_object_name": "IRIDIUM 33 DEB",
        "meta_object_id": "1997-051YJ",
        "meta_epoch": "2025-12-07T08:42:47.311776",
        "meta_mean_motion": 14.41201446,
        "meta_eccentricity": 0.00469795,
        "meta_inclination": 86.2687,
        "meta_ra_of_asc_node": 18.7976,
        "meta_arg_of_pericenter": 67.6005,
        "meta_mean_anomaly": 293.0162,
        "meta_ephemeris_type": 0,
        "meta_classification_type": "U",
        "meta_norad_cat_id": 38022,
        "meta_element_set_no": 999,
        "meta_rev_at_epoch": 69116,
        "meta_bstar": 0.0015997038,
        "meta_mean_motion_dot": 5.249e-05,
        "meta_mean_motion_ddot": 0,
        "tle_line1": "1 38022U 97051YJ  25341.36304759  .00005249  00000+0  15997-2 0  9991",
        "tle_line2": "2 38022  86.2687  18.7976 0046979  67.6005 293.0162 14.41201446691164"
      },
      "geometry": {
        "type": "Point",
        "coordinates": [
          16.473709909144453,
          -14.79865743575063
        ]
      }
    },
    {
      "type": "Feature",
      "properties": {
        "norad_id": 38028,
        "name": "IRIDIUM 33 DEB",
        "group": "iridium-33-debris",
        "lat": 85.76700480635314,
        "lon": 61.53154423385952,
        "alt_km": 714.266469575944,
        "timestamp": "2025-12-10T09:57:45.083854+00:00",
        "meta_object_name": "IRIDIUM 33 DEB",
        "meta_object_id": "1997-051YQ",
        "meta_epoch": "2025-12-09T08:38:54.868992",
        "meta_mean_motion": 14.46171938,
        "meta_eccentricity": 0.00301795,
        "meta_inclination": 86.3256,
        "meta_ra_of_asc_node": 1.7381,
        "meta_arg_of_pericenter": 131.6061,
        "meta_mean_anomaly": 228.7734,
        "meta_ephemeris_type": 0,
        "meta_classification_type": "U",
        "meta_norad_cat_id": 38028,
        "meta_element_set_no": 999,
        "meta_rev_at_epoch": 65446,
        "meta_bstar": 0.0004464513,
        "meta_mean_motion_dot": 1.624e-05,
        "meta_mean_motion_ddot": 0,
        "tle_line1": "1 38028U 97051YQ  25343.36035728  .00001624  00000+0  44645-3 0  9992",
        "tle_line2": "2 38028  86.3256   1.7381 0030179 131.6061 228.7734 14.46171938654463"
      },
      "geometry": {
        "type": "Point",
        "coordinates": [
          61.53154423385952,
          85.76700480635314
        ]
      }
    },
    {
      "type": "Feature",
      "properties": {
        "norad_id": 38228,
        "name": "IRIDIUM 33 DEB",
        "group": "iridium-33-debris",
        "lat": -0.0909861586267738,
        "lon": -130.53551493704433,
        "alt_km": 760.1142860003238,
        "timestamp": "2025-12-10T09:57:45.083865+00:00",
        "meta_object_name": "IRIDIUM 33 DEB",
        "meta_object_id": "1997-051ZC",
        "meta_epoch": "2025-12-08T11:59:08.255904",
        "meta_mean_motion": 14.27257685,
        "meta_eccentricity": 0.00637921,
        "meta_inclination": 86.2952,
        "meta_ra_of_asc_node": 50.2726,
        "meta_arg_of_pericenter": 203.1298,
        "meta_mean_anomaly": 220.077,
        "meta_ephemeris_type": 0,
        "meta_classification_type": "U",
        "meta_norad_cat_id": 38228,
        "meta_element_set_no": 999,
        "meta_rev_at_epoch": 84721,
        "meta_bstar": 0.00059886698,
        "meta_mean_motion_dot": 1.514e-05,
        "meta_mean_motion_ddot": 0,
        "tle_line1": "1 38228U 97051ZC  25342.49940111  .00001514  00000+0  59887-3 0  9990",
        "tle_line2": "2 38228  86.2952  50.2726 0063792 203.1298 220.0770 14.27257685847218"
      },
      "geometry": {
        "type": "Point",
        "coordinates": [
          -130.53551493704433,
          -0.0909861586267738
        ]
      }
    },
    {
      "type": "Feature",
      "properties": {
        "norad_id": 38241,
        "name": "IRIDIUM 33 DEB",
        "group": "iridium-33-debris",
        "lat": -51.32340700461477,
        "lon": 176.23400366234313,
        "alt_km": 720.6308709060477,
        "timestamp": "2025-12-10T09:57:45.083875+00:00",
        "meta_object_name": "IRIDIUM 33 DEB",
        "meta_object_id": "1997-051ZR",
        "meta_epoch": "2025-12-05T18:18:10.298016",
        "meta_mean_motion": 14.54799988,
        "meta_eccentricity": 0.00056722,
        "meta_inclination": 86.3224,
        "meta_ra_of_asc_node": 353.6772,
        "meta_arg_of_pericenter": 87.2865,
        "meta_mean_anomaly": 272.8992,
        "meta_ephemeris_type": 0,
        "meta_classification_type": "U",
        "meta_norad_cat_id": 38241,
        "meta_element_set_no": 999,
        "meta_rev_at_epoch": 60099,
        "meta_bstar": 0.0014749391,
        "meta_mean_motion_dot": 6.345e-05,
        "meta_mean_motion_ddot": 0,
        "tle_line1": "1 38241U 97051ZR  25339.76261919  .00006345  00000+0  14749-2 0  9997",
        "tle_line2": "2 38241  86.3224 353.6772 0005672  87.2865 272.8992 14.54799988600991"
      },
      "geometry": {
        "type": "Point",
        "coordinates": [
          176.23400366234313,
          -51.32340700461477
        ]
      }
    }
  ]
}